FENGYUN 1C DEB          
1 37435U 99025EHD 17342.31248916  .00000518  00000-0  30039-3 0  9990
2 37435  98.8990  23.9972 0046337  86.8697 273.7775 14.12670853228788
